{
  "norad_id": 53190,
  "name": "STARLINK-4332",
  "history": [
    {
      "epoch": "2026-03-28T21:51:09.827424Z",
      "apogee_km": 550.2486690190244,
      "perigee_km": 548.8018960279414,
      "latitude_deg": 2.9438430712263176e-05,
      "longitude_deg": -3.958647163707655,
      "height_km": 553.1586543233049,
      "semi_major_axis_km": 6927.662282523483,
      "eccentricity": 0.00010442,
      "inclination_deg": 97.6044,
      "raan_deg": 150.1565,
      "arg_perigee_deg": 141.8838,
      "mean_anomaly_deg": 218.2463,
      "mean_motion_rev_day": 15.05645394
    },
    {
      "epoch": "2026-03-29T04:13:57.694080Z",
      "apogee_km": 550.2514693411913,
      "perigee_km": 548.7814212800959,
      "latitude_deg": 2.9480700272632605e-05,
      "longitude_deg": -99.6580072830201,
      "height_km": 553.1598789183367,
      "semi_major_axis_km": 6927.653445310643,
      "eccentricity": 0.0001061,
      "inclination_deg": 97.6044,
      "raan_deg": 150.4186,
      "arg_perigee_deg": 141.9993,
      "mean_anomaly_deg": 218.1309,
      "mean_motion_rev_day": 15.05648275
    },
    {
      "epoch": "2026-03-30T02:33:45.723744Z",
      "apogee_km": 550.2953070382491,
      "perigee_km": 548.7462827553109,
      "latitude_deg": -1.363847891184869e-05,
      "longitude_deg": -74.60778546806296,
      "height_km": 553.1573681545038,
      "semi_major_axis_km": 6927.65779489678,
      "eccentricity": 0.0001118,
      "inclination_deg": 97.6042,
      "raan_deg": 151.336,
      "arg_perigee_deg": 137.6601,
      "mean_anomaly_deg": 222.4712,
      "mean_motion_rev_day": 15.05646857
    }
  ]
}